STARLINK-36889          
1 68006U 26039W   26064.58335648 -.01416029  61258-3 -28279-2 0  9990
2 68006  42.9980  80.3175 0001870 273.1249  31.6542 15.98963952  2215
STARLINK-36592          
1 68007U 26039X   26064.58335648 -.01412560  61064-3 -28008-2 0  9992
2 68007  42.9979  80.3142 0001873 270.8933  35.4217 15.99089798  2214
STARLINK-36911          
1 68008U 26039Y   26064.58335648 -.01412442  61141-3 -27796-2 0  9991
2 68008  42.9980  80.3099 0001942 268.9516  39.0047 15.99221647  2212
STARLINK-36956          
1 68009U 26039Z   26064.58335648 -.01405597  60678-3 -27467-2 0  9994
2 68009  42.9978  80.3057 0001734 274.2905  35.2157 15.99345670  2218
STARLINK-36953          
1 68010U 26039AA  26064.58335648 -.01413941  61521-3 -27202-2 0  9993
2 68010  42.9978  80.2969 0001865 270.0225  42.9045 15.99620192  2211
STARLINK-36991          
1 68011U 26039AB  26064.58335648 -.01400143  60506-3 -26738-2 0  9999
2 68011  42.9978  80.2929 0001900 271.9917  42.6069 15.99747408  2219
STARLINK-36936          
1 68012U 26039AC  26064.58335648 -.01389013  59792-3 -26133-2 0  9996
2 68012  42.9977  80.2842 0001864 275.6338  42.2371 16.00005729  2218
STARLINK-36967          
1 68013U 26039AD  26064.58335648 -.01404602  60685-3 -27241-2 0  9993
2 68013  42.9977  80.3013 0001870 271.5161  39.6405 15.99477459  2214
STARLINK-36985          
1 68014U 26039AE  26064.58335648 -.01404682  60951-3 -26628-2 0  9996
2 68014  42.9978  80.2887 0001883 274.1810  41.9935 15.99876545  2211
